H1 CPF  1  DLR 2022 10 11 11  7842 technosat            
H2  1704205 6203    42829 2022 10 11 02 00 00 2022 10 18 02 00 00    60 1 1  0 0 0
H9
10 0 59863   7200.000000  0      -1338636.059      -5050673.701      -4630219.429
10 0 59863   7260.000000  0      -1356016.137      -4728126.224      -4953891.996
10 0 59863   7320.000000  0      -1364806.884      -4385660.683      -5256664.224
10 0 59863   7380.000000  0      -1364805.275      -4024792.211      -5537264.289
10 0 59863   7440.000000  0      -1355858.568      -3647113.416      -5794513.933
10 0 59863   7500.000000  0      -1337865.529      -3254287.264      -6027333.172
10 0 59863   7560.000000  0      -1310777.386      -2848039.662      -6234744.605
10 0 59863   7620.000000  0      -1274598.508      -2430151.825      -6415877.230
10 0 59863   7680.000000  0      -1229386.812      -2002452.505      -6569969.837
10 0 59863   7740.000000  0      -1175253.896      -1566810.059      -6696373.989
10 0 59863   7800.000000  0      -1112364.907      -1125124.399      -6794556.553
10 0 59863   7860.000000  0      -1040938.146       -679318.839      -6864101.830
10 0 59863   7920.000000  0       -961244.352       -231331.834      -6904713.213
10 0 59863   7980.000000  0       -873605.688        216891.248      -6916214.332
10 0 59863   8040.000000  0       -778394.500        663406.331      -6898549.860
10 0 59863   8100.000000  0       -676031.789       1106278.933      -6851785.888
10 0 59863   8160.000000  0       -566985.436       1543592.383      -6776109.722
10 0 59863   8220.000000  0       -451768.203       1973455.912      -6671829.359
10 0 59863   8280.000000  0       -330935.431       2394012.769      -6539372.514
10 0 59863   8340.000000  0       -205082.483       2803448.202      -6379285.173
10 0 59863   8400.000000  0        -74841.925       3199997.342      -6192229.691
10 0 59863   8460.000000  0         59119.542       3581952.916      -5978982.316
10 0 59863   8520.000000  0        196104.323       3947672.636      -5740430.260
10 0 59863   8580.000000  0        335387.377       4295586.396      -5477568.411
10 0 59863   8640.000000  0        476219.880       4624203.269      -5191495.550
10 0 59863   8700.000000  0        617833.057       4932118.200      -4883410.107
10 0 59863   8760.000000  0        759442.198       5218018.378      -4554605.413
10 0 59863   8820.000000  0        900250.822       5480689.203      -4206464.506
10 0 59863   8880.000000  0       1039454.955       5719019.825      -3840454.509
10 0 59863   8940.000000  0       1176247.502       5932008.251      -3458120.618
10 0 59863   9000.000000  0       1309822.708       6118766.004      -3061079.696
10 0 59863   9060.000000  0       1439380.670       6278522.276      -2651013.464
10 0 59863   9120.000000  0       1564131.877       6410627.539      -2229661.346
10 0 59863   9180.000000  0       1683301.749       6514556.595      -1798812.982
10 0 59863   9240.000000  0       1796135.161       6589911.019      -1360300.458
10 0 59863   9300.000000  0       1901900.899       6636420.966       -915990.261
10 0 59863   9360.000000  0       1999896.011       6653946.324       -467775.069
10 0 59863   9420.000000  0       2089450.023       6642477.237        -17565.383
10 0 59863   9480.000000  0       2169929.023       6602133.969        432718.923
10 0 59863   9540.000000  0       2240739.572       6533166.141        881157.106
10 0 59863   9600.000000  0       2301332.419       6435951.331       1325836.077
10 0 59863   9660.000000  0       2351206.000       6310993.012       1764858.905
10 0 59863   9720.000000  0       2389909.667       6158917.887       2196353.208
10 0 59863   9780.000000  0       2417046.681       5980472.632       2618479.427
10 0 59863   9840.000000  0       2432276.933       5776520.076       3029438.938
10 0 59863   9900.000000  0       2435319.386       5548034.786       3427482.003
10 0 59863   9960.000000  0       2425954.115       5296098.107       3810915.403
10 0 59863  10020.000000  0       2404024.062       5021892.817       4178109.800
10 0 59863  10080.000000  0       2369436.498       4726697.171       4527506.915
10 0 59863  10140.000000  0       2322163.998       4411878.337       4857626.122
10 0 59863  10200.000000  0       2262245.130       4078885.715       5167070.499
10 0 59863  10260.000000  0       2189784.851       3729243.985       5454532.594
10 0 59863  10320.000000  0       2104954.583       3364545.873       5718799.770
10 0 59863  10380.000000  0       2007991.955       2986444.656       5958759.165
10 0 59863  10440.000000  0       1899200.163       2596646.445       6173402.208
10 0 59863  10500.000000  0       1778946.981       2196902.248       6361828.651
10 0 59863  10560.000000  0       1647663.476       1788999.899       6523250.072
10 0 59863  10620.000000  0       1505842.384       1374755.914       6656992.876
10 0 59863  10680.000000  0       1354036.175        956007.327       6762500.786
10 0 59863  10740.000000  0       1192854.859        534603.565       6839336.850
10 0 59863  10800.000000  0       1022963.495        112398.380       6887185.073
10 0 59863  10860.000000  0        845079.409       -308758.280       6905851.647
10 0 59863  10920.000000  0        659969.119       -727028.428       6895265.606
10 0 59863  10980.000000  0        468445.015      -1140594.010       6855478.940
10 0 59863  11040.000000  0        271361.764      -1547664.740       6786666.275
10 0 59863  11100.000000  0         69612.494      -1946485.806       6689124.049
10 0 59863  11160.000000  0       -135875.256      -2335345.383       6563269.258
10 0 59863  11220.000000  0       -344143.780      -2712581.999       6409637.638
10 0 59863  11280.000000  0       -554209.567      -3076591.545       6228881.341
10 0 59863  11340.000000  0       -765067.841      -3425834.000       6021766.265
10 0 59863  11400.000000  0       -975697.238      -3758839.907       5789168.955
10 0 59863  11460.000000  0      -1185064.652      -4074216.561       5532073.140
10 0 59863  11520.000000  0      -1392130.255      -4370653.934       5251565.836
10 0 59863  11580.000000  0      -1595852.628      -4646930.264       4948832.951
10 0 59863  11640.000000  0      -1795193.943      -4901917.269       4625154.443
10 0 59863  11700.000000  0      -1989125.195      -5134584.975       4281899.062
10 0 59863  11760.000000  0      -2176631.470      -5344006.081       3920518.612
10 0 59863  11820.000000  0      -2356717.175      -5529359.788       3542541.837
10 0 59863  11880.000000  0      -2528411.210      -5689935.134       3149567.994
10 0 59863  11940.000000  0      -2690772.083      -5825133.845       2743260.126
10 0 59863  12000.000000  0      -2842892.930      -5934472.695       2325338.019
10 0 59863  12060.000000  0      -2983906.405      -6017585.317       1897570.893
10 0 59863  12120.000000  0      -3112989.425      -6074223.493       1461769.852
10 0 59863  12180.000000  0      -3229367.733      -6104257.874       1019780.109
10 0 59863  12240.000000  0      -3332320.239      -6107678.118        573473.064
10 0 59863  12300.000000  0      -3421183.137      -6084592.504        124738.259
10 0 59863  12360.000000  0      -3495353.762      -6035226.970       -324524.784
10 0 59863  12420.000000  0      -3554294.155      -5959923.579       -772414.780
10 0 59863  12480.000000  0      -3597534.323      -5859138.417      -1217036.884
10 0 59863  12540.000000  0      -3624675.173      -5733438.955      -1656510.871
10 0 59863  12600.000000  0      -3635391.100      -5583500.884      -2088979.210
10 0 59863  12660.000000  0      -3629432.225      -5410104.452      -2512615.031
10 0 59863  12720.000000  0      -3606626.233      -5214130.307      -2925629.931
10 0 59863  12780.000000  0      -3566879.834      -4996554.890      -3326281.547
10 0 59863  12840.000000  0      -3510179.818      -4758445.425      -3712880.882
10 0 59863  12900.000000  0      -3436593.734      -4500954.541      -4083799.343
10 0 59863  12960.000000  0      -3346270.197      -4225314.566      -4437475.492
10 0 59863  13020.000000  0      -3239438.792      -3932831.504      -4772421.487
10 0 59863  13080.000000  0      -3116409.609      -3624878.710      -5087229.165
10 0 59863  13140.000000  0      -2977572.393      -3302890.342      -5380575.750
10 0 59863  13200.000000  0      -2823395.337      -2968354.594      -5651229.176
10 0 59863  13260.000000  0      -2654423.497      -2622806.780      -5898053.016
10 0 59863  13320.000000  0      -2471276.855      -2267822.283      -6120011.040
10 0 59863  13380.000000  0      -2274647.991      -1905009.346      -6316171.345
10 0 59863  13440.000000  0      -2065299.421      -1536001.804      -6485709.989
10 0 59863  13500.000000  0      -1844060.644      -1162451.788      -6627914.191
10 0 59863  13560.000000  0      -1611824.875       -786022.411      -6742185.088
10 0 59863  13620.000000  0      -1369545.506       -408380.493      -6828040.022
10 0 59863  13680.000000  0      -1118232.315        -31189.357      -6885114.446
10 0 59863  13740.000000  0       -858947.330        343898.315      -6913163.438
10 0 59863  13800.000000  0       -592800.442        715247.572      -6912062.765
10 0 59863  13860.000000  0       -320944.764       1081248.229      -6881809.435
10 0 59863  13920.000000  0        -44571.819       1440321.661      -6822521.775
10 0 59863  13980.000000  0        235093.474       1790927.458      -6734439.244
10 0 59863  14040.000000  0        516798.148       2131570.067      -6617921.771
10 0 59863  14100.000000  0        799266.775       2460805.150      -6473448.496
10 0 59863  14160.000000  0       1081207.135       2777245.715      -6301616.054
10 0 59863  14220.000000  0       1361316.009       3079568.052      -6103136.407
10 0 59863  14280.000000  0       1638285.130       3366517.363      -5878834.204
10 0 59863  14340.000000  0       1910807.264       3636913.065      -5629643.714
99
